[
    {
        "CCSDS_OMM_VERS": "3.0",
        "COMMENT": "GENERATED VIA SPACE-TRACK.ORG API",
        "CREATION_DATE": "2025-03-02T18:08:23",
        "ORIGINATOR": "18 SPCS",
        "OBJECT_NAME": "COSMOS 2557 (GLONASS)",
        "OBJECT_ID": "2022-075A",
        "CENTER_NAME": "EARTH",
        "REF_FRAME": "TEME",
        "TIME_SYSTEM": "UTC",
        "MEAN_ELEMENT_THEORY": "SGP4",
        "EPOCH": "2025-03-02T00:47:04.253568",
        "MEAN_MOTION": "2.13101687",
        "ECCENTRICITY": "0.00123420",
        "INCLINATION": "64.5585",
        "RA_OF_ASC_NODE": "331.0755",
        "ARG_OF_PERICENTER": "285.4715",
        "MEAN_ANOMALY": "74.4403",
        "EPHEMERIS_TYPE": "0",
        "CLASSIFICATION_TYPE": "U",
        "NORAD_CAT_ID": "52984",
        "ELEMENT_SET_NO": "999",
        "REV_AT_EPOCH": "2065",
        "BSTAR": "0.00000000000000",
        "MEAN_MOTION_DOT": "-0.00000050",
        "MEAN_MOTION_DDOT": "0.0000000000000",
        "SEMIMAJOR_AXIS": "25508.049",
        "PERIOD": "675.734",
        "APOAPSIS": "19161.396",
        "PERIAPSIS": "19098.432",
        "OBJECT_TYPE": "PAYLOAD",
        "RCS_SIZE": "LARGE",
        "COUNTRY_CODE": "CIS",
        "LAUNCH_DATE": "2022-07-07",
        "SITE": "PKMTR",
        "DECAY_DATE": null,
        "FILE": "4657142",
        "GP_ID": "282091929",
        "TLE_LINE0": "0 COSMOS 2557 (GLONASS)",
        "TLE_LINE1": "1 52984U 22075A   25061.03268812 -.00000050  00000-0  00000-0 0  9994",
        "TLE_LINE2": "2 52984  64.5585 331.0755 0012342 285.4715  74.4403  2.13101687 20655"
    }
]